
{
    "type": "FeatureCollection",
    "features": [
        {
            "type": "Feature",
            "geometry": {
                "type": "Polygon",
                "coordinates": [
                    [
                        [90.33027649,22.94618034],[90.33235931,22.94605064],[90.33661652,22.9446907],[90.35082245,22.94058037],[90.35965729,22.9354496],[90.36354065,22.92564964],[90.36193848,22.91500092],[90.35987091,22.90997124],[90.35688019,22.90061951],[90.35402679,22.89212036],[90.35035706,22.88039017],[90.34596252,22.87837982],[90.34350586,22.87915993],[90.34129333,22.87985992],[90.33798981,22.87931061],[90.33058929,22.87829018],[90.32673645,22.87815285],[90.32527924,22.88116074],[90.32177734,22.88033104],[90.32302856,22.87836266],[90.32316589,22.87652969],[90.32377625,22.87393951],[90.32460022,22.87466812],[90.32821655,22.87549019],[90.33138275,22.87547112],[90.3343811,22.87648964],[90.33656311,22.87478065],[90.33880615,22.87540054],[90.34326172,22.87668037],[90.34812927,22.8740406],[90.34977722,22.87322807],[90.35204315,22.8721199],[90.3549881,22.86656952],[90.35817719,22.86112022],[90.35701752,22.85531044],[90.35674286,22.85173035],[90.35717773,22.8477211],[90.35708618,22.8403492],[90.35394287,22.83855057],[90.35150146,22.83769035],[90.3482132,22.83720016],[90.35196686,22.83214188],[90.35381317,22.82747078],[90.35211182,22.82419968],[90.34929657,22.82357979],[90.35101318,22.82006073],[90.35206604,22.81768036],[90.35397339,22.81341171],[90.35780334,22.80834961],[90.36167145,22.80421829],[90.36277008,22.80304909],[90.36332703,22.80245018],[90.36738586,22.7975502],[90.3677597,22.79685974],[90.36807251,22.79626083],[90.37121582,22.79025841],[90.37465668,22.78297997],[90.37786102,22.77371025],[90.38506317,22.76777077],[90.38418579,22.76723099],[90.38008118,22.76473999],[90.37413025,22.75597954],[90.37374878,22.75542068],[90.37320709,22.75251007],[90.37193298,22.74570084],[90.36815643,22.75300026],[90.36721039,22.75420952],[90.36573792,22.75663948],[90.36351013,22.75881004],[90.36060333,22.76122093],[90.35865021,22.7621212],[90.35647583,22.76429176],[90.35331726,22.76613808],[90.34937286,22.76675034],[90.34477234,22.76622963],[90.34142303,22.76603127],[90.3398819,22.76646042],[90.33711243,22.76699257],[90.33561707,22.7667675],[90.3340683,22.76655006],[90.3311615,22.76673126],[90.32781219,22.76641083],[90.32408142,22.76599121],[90.32290649,22.76356125],[90.31915283,22.76234055],[90.31523132,22.7616806],[90.31414032,22.76034927],[90.31194305,22.75885963],[90.30773926,22.75729752],[90.30742645,22.75484276],[90.30474091,22.75389099],[90.30325317,22.75181007],[90.30371094,22.75037003],[90.30503845,22.74932289],[90.30599976,22.74814034],[90.30712891,22.74641037],[90.30609894,22.745121],[90.30310822,22.74432945],[90.30342102,22.74221039],[90.30126953,22.74044037],[90.29827118,22.73953056],[90.29638672,22.73890114],[90.2934494,22.73759079],[90.29016113,22.73739052],[90.28790283,22.73847008],[90.28539276,22.73920822],[90.2833786,22.74069023],[90.28145599,22.74068069],[90.2806015,22.73870087],[90.28047943,22.73647118],[90.27702332,22.73673248],[90.27583313,22.73841095],[90.27066803,22.73983955],[90.26519775,22.74118042],[90.26088715,22.74465752],[90.25945282,22.74838829],[90.26008606,22.75139999],[90.24977112,22.75432968],[90.24968719,22.75793076],[90.25151825,22.7593708],[90.25367737,22.76137924],[90.25428009,22.7651329],[90.25003815,22.76638031],[90.25015259,22.77054024],[90.25141907,22.77365112],[90.2539978,22.77736282],[90.25801849,22.77732086],[90.2592926,22.78083992],[90.26193237,22.78442955],[90.26322937,22.78646088],[90.25991821,22.78996086],[90.26106262,22.79335976],[90.259552,22.79688072],[90.26027679,22.79891968],[90.26438904,22.80385017],[90.26313019,22.80536079],[90.26036835,22.8085804],[90.25512695,22.80955124],[90.25504303,22.81165123],[90.25502014,22.81235123],[90.25668335,22.8164196],[90.2611084,22.82197952],[90.26357269,22.82079124],[90.26686096,22.81920815],[90.26811218,22.82004166],[90.26935577,22.82234955],[90.27256775,22.82860947],[90.26992035,22.83139992],[90.26901245,22.83234978],[90.27025604,22.83723068],[90.27379608,22.84389114],[90.27606201,22.84346962],[90.28013611,22.84271049],[90.28074646,22.84656906],[90.28396606,22.85346985],[90.28205872,22.85563278],[90.28090668,22.85691071],[90.28305817,22.86046028],[90.28713989,22.8671608],[90.28930664,22.87168121],[90.29122925,22.87598038],[90.29534149,22.88353157],[90.29824829,22.88986015],[90.29987335,22.8923912],[90.30052185,22.89369011],[90.30240631,22.89684105],[90.30458069,22.89957047],[90.30531311,22.90048981],[90.30548859,22.902771],[90.3060379,22.9046402],[90.30626678,22.90629005],[90.3068924,22.90845108],[90.30684662,22.91130066],[90.30806732,22.91287041],[90.30898285,22.91456985],[90.3117981,22.91757965],[90.31450653,22.91934013],[90.3166275,22.92248917],[90.31842041,22.92611122],[90.32029724,22.92679977],[90.32219696,22.9281311],[90.32393646,22.93070984],[90.32785797,22.9309082],[90.330513,22.9283905],[90.33312225,22.92860985],[90.33503723,22.93305969],[90.33358002,22.93832016],[90.33331299,22.94151115],[90.33174896,22.94378281],[90.33027649,22.94618034]
                    ]
                ]
            },
            "properties": {
                "name": "Test Polygon"
            }
        }
    ]
}
